{"type": "FeatureCollection", "features": [ {"type": "Feature", "properties": {"norad_id": 42741, "name": "EUTELSAT 172B", "group": "eutelsat", "lat": 0.0009152261357836419, "lon": 152.9541114203657, "alt_km": 35785.842472005635, "timestamp": "2025-12-04T17:48:39.844570+00:00", "meta": {"OBJECT_NAME": "EUTELSAT 172B", "OBJECT_ID": "2017-029B", "EPOCH": "2025-12-04T05:58:59.710080", "MEAN_MOTION": 1.00271317, "ECCENTRICITY": 1.593e-05, "INCLINATION": 0.0204, "RA_OF_ASC_NODE": 143.0384, "ARG_OF_PERICENTER": 68.0801, "MEAN_ANOMALY": 123.9551, "EPHEMERIS_TYPE": 0, "CLASSIFICATION_TYPE": "U", "NORAD_CAT_ID": 42741, "ELEMENT_SET_NO": 999, "REV_AT_EPOCH": 3177, "BSTAR": 0, "MEAN_MOTION_DOT": 1e-07, "MEAN_MOTION_DDOT": 0}, "tle": {"line1": "1 42741U 17029B   25338.24930220  .00000010  00000+0  00000+0 0  9999", "line2": "2 42741   0.0204 143.0384 0000159  68.0801 123.9551  1.00271317 31773"}}, "geometry": {"type": "Point", "coordinates": [152.9541114203657, 0.0009152261357836419]}}, {"type": "Feature", "properties": {"norad_id": 44334, "name": "EUTELSAT 7C", "group": "eutelsat", "lat": 0.03310141673161319, "lon": -12.02471597123749, "alt_km": 35791.9630316733, "timestamp": "2025-12-04T17:48:39.844582+00:00", "meta": {"OBJECT_NAME": "EUTELSAT 7C", "OBJECT_ID": "2019-034B", "EPOCH": "2025-12-04T05:11:56.717952", "MEAN_MOTION": 1.00269705, "ECCENTRICITY": 0.00034396, "INCLINATION": 0.0758, "RA_OF_ASC_NODE": 179.6886, "ARG_OF_PERICENTER": 56.5984, "MEAN_ANOMALY": 281.9777, "EPHEMERIS_TYPE": 0, "CLASSIFICATION_TYPE": "U", "NORAD_CAT_ID": 44334, "ELEMENT_SET_NO": 999, "REV_AT_EPOCH": 488, "BSTAR": 0, "MEAN_MOTION_DOT": 6.4e-07, "MEAN_MOTION_DDOT": 0}, "tle": {"line1": "1 44334U 19034B   25338.21662868  .00000064  00000+0  00000+0 0  9993", "line2": "2 44334   0.0758 179.6886 0003439  56.5984 281.9777  1.00269705  4882"}}, "geometry": {"type": "Point", "coordinates": [-12.02471597123749, 0.03310141673161319]}}, {"type": "Feature", "properties": {"norad_id": 44624, "name": "EUTELSAT 5 WEST B", "group": "eutelsat", "lat": 0.0123694201434938, "lon": -24.000045809215745, "alt_km": 35784.90759479216, "timestamp": "2025-12-04T17:48:39.844593+00:00", "meta": {"OBJECT_NAME": "EUTELSAT 5 WEST B", "OBJECT_ID": "2019-067A", "EPOCH": "2025-12-04T05:08:27.051936", "MEAN_MOTION": 1.00268945, "ECCENTRICITY": 0.00034846, "INCLINATION": 0.0701, "RA_OF_ASC_NODE": 329.9131, "ARG_OF_PERICENTER": 283.6966, "MEAN_ANOMALY": 251.8026, "EPHEMERIS_TYPE": 0, "CLASSIFICATION_TYPE": "U", "NORAD_CAT_ID": 44624, "ELEMENT_SET_NO": 999, "REV_AT_EPOCH": 2248, "BSTAR": 0, "MEAN_MOTION_DOT": -2.7e-07, "MEAN_MOTION_DDOT": 0}, "tle": {"line1": "1 44624U 19067A   25338.21420199 -.00000027  00000+0  00000+0 0  9990", "line2": "2 44624   0.0701 329.9131 0003484 283.6966 251.8026  1.00268945 22482"}}, "geometry": {"type": "Point", "coordinates": [-24.000045809215745, 0.0123694201434938]}}, {"type": "Feature", "properties": {"norad_id": 45027, "name": "EUTELSAT KONNECT", "group": "eutelsat", "lat": -0.0523715136906049, "lon": -11.846789431740195, "alt_km": 35783.34409125648, "timestamp": "2025-12-04T17:48:39.844605+00:00", "meta": {"OBJECT_NAME": "EUTELSAT KONNECT", "OBJECT_ID": "2020-005B", "EPOCH": "2025-12-04T05:11:56.717952", "MEAN_MOTION": 1.00268809, "ECCENTRICITY": 0.00018071, "INCLINATION": 0.0706, "RA_OF_ASC_NODE": 98.8634, "ARG_OF_PERICENTER": 187.1969, "MEAN_ANOMALY": 232.4024, "EPHEMERIS_TYPE": 0, "CLASSIFICATION_TYPE": "U", "NORAD_CAT_ID": 45027, "ELEMENT_SET_NO": 999, "REV_AT_EPOCH": 2237, "BSTAR": 0, "MEAN_MOTION_DOT": 6.5e-07, "MEAN_MOTION_DDOT": 0}, "tle": {"line1": "1 45027U 20005B   25338.21662868  .00000065  00000+0  00000+0 0  9994", "line2": "2 45027   0.0706  98.8634 0001807 187.1969 232.4024  1.00268809 22373"}}, "geometry": {"type": "Point", "coordinates": [-11.846789431740195, -0.0523715136906049]}}, {"type": "Feature", "properties": {"norad_id": 49056, "name": "EUTELSAT QUANTUM", "group": "eutelsat", "lat": 0.018456366151426422, "lon": 28.70717912656761, "alt_km": 35794.498135890746, "timestamp": "2025-12-04T17:48:39.844616+00:00", "meta": {"OBJECT_NAME": "EUTELSAT QUANTUM", "OBJECT_ID": "2021-069B", "EPOCH": "2025-12-04T03:40:50.445696", "MEAN_MOTION": 1.00272043, "ECCENTRICITY": 0.00038062, "INCLINATION": 0.02, "RA_OF_ASC_NODE": 21.5671, "ARG_OF_PERICENTER": 245.1984, "MEAN_ANOMALY": 269.3877, "EPHEMERIS_TYPE": 0, "CLASSIFICATION_TYPE": "U", "NORAD_CAT_ID": 49056, "ELEMENT_SET_NO": 999, "REV_AT_EPOCH": 1597, "BSTAR": 0, "MEAN_MOTION_DOT": 1.42e-06, "MEAN_MOTION_DDOT": 0}, "tle": {"line1": "1 49056U 21069B   25338.15336164  .00000142  00000+0  00000+0 0  9997", "line2": "2 49056   0.0200  21.5671 0003806 245.1984 269.3877  1.00272043 15973"}}, "geometry": {"type": "Point", "coordinates": [28.70717912656761, 0.018456366151426422]}}, {"type": "Feature", "properties": {"norad_id": 53765, "name": "EUTELSAT KONNECT VHTS", "group": "eutelsat", "lat": -0.03816424041842153, "lon": -16.320531285395123, "alt_km": 35791.07474857378, "timestamp": "2025-12-04T17:48:39.844628+00:00", "meta": {"OBJECT_NAME": "EUTELSAT KONNECT VHTS", "OBJECT_ID": "2022-110A", "EPOCH": "2025-12-04T05:10:41.836800", "MEAN_MOTION": 1.00268913, "ECCENTRICITY": 0.00027455, "INCLINATION": 0.0593, "RA_OF_ASC_NODE": 108.9289, "ARG_OF_PERICENTER": 123.2902, "MEAN_ANOMALY": 281.4458, "EPHEMERIS_TYPE": 0, "CLASSIFICATION_TYPE": "U", "NORAD_CAT_ID": 53765, "ELEMENT_SET_NO": 999, "REV_AT_EPOCH": 487, "BSTAR": 0, "MEAN_MOTION_DOT": 3.3e-07, "MEAN_MOTION_DDOT": 0}, "tle": {"line1": "1 53765U 22110A   25338.21576200  .00000033  00000+0  00000+0 0  9990", "line2": "2 53765   0.0593 108.9289 0002745 123.2902 281.4458  1.00268913  4870"}}, "geometry": {"type": "Point", "coordinates": [-16.320531285395123, -0.03816424041842153]}}, {"type": "Feature", "properties": {"norad_id": 54048, "name": "EUTELSAT HOTBIRD 13F", "group": "eutelsat", "lat": 0.05923083721805289, "lon": -6.0442530715196865, "alt_km": 35777.45703641075, "timestamp": "2025-12-04T17:48:39.844639+00:00", "meta": {"OBJECT_NAME": "EUTELSAT HOTBIRD 13F", "OBJECT_ID": "2022-134A", "EPOCH": "2025-12-04T05:13:41.549664", "MEAN_MOTION": 1.00270634, "ECCENTRICITY": 0.00021197, "INCLINATION": 0.0518, "RA_OF_ASC_NODE": 291.4552, "ARG_OF_PERICENTER": 62.4336, "MEAN_ANOMALY": 170.8297, "EPHEMERIS_TYPE": 0, "CLASSIFICATION_TYPE": "U", "NORAD_CAT_ID": 54048, "ELEMENT_SET_NO": 999, "REV_AT_EPOCH": 1142, "BSTAR": 0, "MEAN_MOTION_DOT": 1.03e-06, "MEAN_MOTION_DDOT": 0}, "tle": {"line1": "1 54048U 22134A   25338.21784201  .00000103  00000+0  00000+0 0  9991", "line2": "2 54048   0.0518 291.4552 0002119  62.4336 170.8297  1.00270634 11427"}}, "geometry": {"type": "Point", "coordinates": [-6.0442530715196865, 0.05923083721805289]}}, {"type": "Feature", "properties": {"norad_id": 54225, "name": "EUTELSAT HOTBIRD 13G", "group": "eutelsat", "lat": 0.04864537400504432, "lon": -6.0393744071796185, "alt_km": 35795.01737796125, "timestamp": "2025-12-04T17:48:39.844651+00:00", "meta": {"OBJECT_NAME": "EUTELSAT HOTBIRD 13G", "OBJECT_ID": "2022-146A", "EPOCH": "2025-12-04T01:48:08.883648", "MEAN_MOTION": 1.00271083, "ECCENTRICITY": 0.0002144, "INCLINATION": 0.0481, "RA_OF_ASC_NODE": 238.3515, "ARG_OF_PERICENTER": 307.4733, "MEAN_ANOMALY": 287.3658, "EPHEMERIS_TYPE": 0, "CLASSIFICATION_TYPE": "U", "NORAD_CAT_ID": 54225, "ELEMENT_SET_NO": 999, "REV_AT_EPOCH": 551, "BSTAR": 0, "MEAN_MOTION_DOT": 1.04e-06, "MEAN_MOTION_DDOT": 0}, "tle": {"line1": "1 54225U 22146A   25338.07510282  .00000104  00000+0  00000+0 0  9992", "line2": "2 54225   0.0481 238.3515 0002144 307.4733 287.3658  1.00271083  5510"}}, "geometry": {"type": "Point", "coordinates": [-6.0393744071796185, 0.04864537400504432]}}, {"type": "Feature", "properties": {"norad_id": 54259, "name": "EUTELSAT 10B", "group": "eutelsat", "lat": -0.042826870679417775, "lon": -9.042071743337386, "alt_km": 35791.230518078926, "timestamp": "2025-12-04T17:48:39.844662+00:00", "meta": {"OBJECT_NAME": "EUTELSAT 10B", "OBJECT_ID": "2022-157A", "EPOCH": "2025-12-03T04:33:38.732832", "MEAN_MOTION": 1.00268425, "ECCENTRICITY": 0.0001038, "INCLINATION": 0.0608, "RA_OF_ASC_NODE": 103.578, "ARG_OF_PERICENTER": 72.8343, "MEAN_ANOMALY": 334.2971, "EPHEMERIS_TYPE": 0, "CLASSIFICATION_TYPE": "U", "NORAD_CAT_ID": 54259, "ELEMENT_SET_NO": 999, "REV_AT_EPOCH": 1106, "BSTAR": 0, "MEAN_MOTION_DOT": 8.7e-07, "MEAN_MOTION_DDOT": 0}, "tle": {"line1": "1 54259U 22157A   25337.19003163  .00000087  00000+0  00000+0 0  9998", "line2": "2 54259   0.0608 103.5780 0001038  72.8343 334.2971  1.00268425 11069"}}, "geometry": {"type": "Point", "coordinates": [-9.042071743337386, -0.042826870679417775]}}, {"type": "Feature", "properties": {"norad_id": 59346, "name": "EUTELSAT 36D", "group": "eutelsat", "lat": 0.029368224906084966, "lon": 16.813235876550046, "alt_km": 35785.385164445965, "timestamp": "2025-12-04T17:48:39.844674+00:00", "meta": {"OBJECT_NAME": "EUTELSAT 36D", "OBJECT_ID": "2024-059A", "EPOCH": "2025-12-03T13:55:38.715744", "MEAN_MOTION": 1.00270882, "ECCENTRICITY": 6.596e-05, "INCLINATION": 0.0224, "RA_OF_ASC_NODE": 345.8589, "ARG_OF_PERICENTER": 317.7492, "MEAN_ANOMALY": 13.8207, "EPHEMERIS_TYPE": 0, "CLASSIFICATION_TYPE": "U", "NORAD_CAT_ID": 59346, "ELEMENT_SET_NO": 999, "REV_AT_EPOCH": 618, "BSTAR": 0, "MEAN_MOTION_DOT": 0, "MEAN_MOTION_DDOT": 0}, "tle": {"line1": "1 59346U 24059A   25337.58030921  .00000000  00000+0  00000+0 0  9993", "line2": "2 59346   0.0224 345.8589 0000659 317.7492  13.8207  1.00270882  6186"}}, "geometry": {"type": "Point", "coordinates": [16.813235876550046, 0.029368224906084966]}}]}